E-ST@R-II               
1 41459U 16025D   22253.46499287  .00008884  00000+0  37351-3 0  9999
2 41459  98.1933  65.0571 0140254 340.9130  18.6875 15.15093479350364
AAUSAT 4                
1 41460U 16025E   22253.48393543  .00015385  00000+0  55635-3 0  9990
2 41460  98.1822  72.1122 0119054 313.9564  45.1924 15.22015868350868
BEESAT-4                
1 41619U 16040W   22253.08667284  .00015037  00000+0  47204-3 0  9992
2 41619  97.2092 301.5333 0009778 163.6925 196.4634 15.33067134333682
RAVAN                   
1 41849U 16067B   22253.37781918  .00003010  00000+0  23927-3 0  9993
2 41849  98.0093  32.8891 0016351  57.7399 302.5406 15.01149285318732
CELTEE 1                
1 41850U 16067C   22253.31168990  .00002152  00000+0  18393-3 0  9995
2 41850  98.0078  27.5305 0008955  62.6054 297.6078 14.98732590318463
OPTICUBE 04             
1 41851U 16067D   22253.33321598  .00001581  00000+0  13915-3 0  9993
2 41851  98.0089  26.4944 0010335  63.2409 296.9869 14.97974214318414
AEROCUBE 8D             
1 41852U 16067E   22253.37285550  .00002339  00000+0  19979-3 0  9993
2 41852  98.0052  26.6116 0009588  63.3553 296.8650 14.98668323318416
AEROCUBE 8C             
1 41853U 16067F   22253.35558511  .00001881  00000+0  16184-3 0  9998
2 41853  98.0052  26.4093 0010087  58.6056 301.6151 14.98642790318400
PROMETHEUS 2-1          
1 41854U 16067G   22253.32099310  .00004368  00000+0  35551-3 0  9995
2 41854  98.0048  27.6012 0016273  66.5590 293.7341 14.99986806318462
PROMETHEUS 2-3          
1 41855U 16067H   22253.31218567  .00003967  00000+0  32344-3 0  9993
2 41855  98.0030  27.6827 0014265  81.2079 279.0758 14.99999198318460
INS-1B                  
1 41954U 17008G   22253.13251461  .00013199  00000+0  41192-3 0  9998
2 41954  97.2502 311.3367 0005585 295.3290  64.7374 15.33317344309712
BGUSAT                  
1 41999U 17008BD  22253.16120438  .00037426  00000+0  77963-3 0  9993
2 41999  97.2741 323.5029 0003248 262.7260  97.3620 15.45495791309706
DIDO-2                  
1 42000U 17008BE  22253.10710853  .00007723  00000+0  27220-3 0  9995
2 42000  97.2493 310.2831 0006058 327.6719  32.4150 15.29535398309001
PEASSS                  
1 42015U 17008BV  22253.41676579  .00011079  00000+0  34741-3 0  9996
2 42015  97.2559 314.8955 0003773 322.8591  37.2390 15.33216340309785
AL-FARABI 1             
1 42016U 17008BW  22253.12998193  .00017381  00000+0  48545-3 0  9993
2 42016  97.2629 318.0956 0002851 313.0123  47.0882 15.36768239310048
NAYIF-1 (EO-88)         
1 42017U 17008BX  22253.13668421  .00017344  00000+0  48184-3 0  9991
2 42017  97.2622 318.1244 0003159 310.1355  49.9613 15.36935166310071
UCLSAT                  
1 42765U 17036A   22253.05172709  .00012591  00000+0  41679-3 0  9993
2 42765  97.1902 293.1289 0009523  33.9123 326.2726 15.31406856290792
LITUANICASAT-2          
1 42768U 17036D   22253.34028646  .00029546  00000+0  75582-3 0  9996
2 42768  97.1982 297.0489 0008963  12.2375 347.9087 15.39340965290295
AALTO-1                 
1 42775U 17036L   22253.54191574  .00006619  00000+0  25518-3 0  9997
2 42775  97.1912 288.1290 0012963  33.1904 327.0146 15.26565297289759
URSA MAIOR              
1 42776U 17036M   22253.55447880  .00007212  00000+0  27232-3 0  9998
2 42776  97.1926 288.9601 0012580  31.9563 328.2437 15.27225576289795
COMPASS 2               
1 42777U 17036N   22253.24034378  .00017415  00000+0  51297-3 0  9993
2 42777  97.1970 295.8574 0009004  20.1263 340.0334 15.35062158290148
DIAMOND RED             
1 42783U 17036U   22253.05810694  .00008867  00000+0  32037-3 0  9994
2 42783  97.1931 290.9788 0011063  38.7254 321.4777 15.28632892289869
PEGASUS                 
1 42784U 17036V   22253.54963570  .00010843  00000+0  37050-3 0  9998
2 42784  97.1922 292.7805 0010428  34.3897 325.8017 15.30406113290022
DIAMOND GREEN           
1 42785U 17036W   22253.05867735  .00009303  00000+0  33623-3 0  9992
2 42785  97.1935 291.0426 0010899  40.3292 319.8754 15.28610046289934
DIAMOND BLUE            
1 42786U 17036X   22253.05770287  .00009026  00000+0  32635-3 0  9992
2 42786  97.1934 291.0338 0010970  40.6734 319.5323 15.28606125289932
NUDTSAT                 
1 42787U 17036Y   22253.63061140  .00022799  00000+0  64229-3 0  9994
2 42787  97.1964 297.6596 0008973  20.5281 339.6322 15.36407619290163
SUCHAI                  
1 42788U 17036Z   22253.11131904  .00013619  00000+0  43521-3 0  9997
2 42788  97.1928 294.2357 0009484  31.3153 328.8653 15.32522612290140
SKCUBE                  
1 42789U 17036AA  22253.08906464  .00012152  00000+0  40019-3 0  9995
2 42789  97.1924 293.5749 0009622  32.8269 327.3569 15.31581015290020
VZLUSAT-1               
1 42790U 17036AB  22253.12651790  .00018835  00000+0  53546-3 0  9994
2 42790  97.1948 297.1135 0007825  24.9558 335.2063 15.36170795290237
ROBUSTA 1B              
1 42792U 17036AD  22253.07828144  .00013784  00000+0  44442-3 0  9992
2 42792  97.1927 294.1965 0009156  33.0304 327.1508 15.32235653290070
CICERO 6                
1 42793U 17036AE  22253.54397580  .00007834  00000+0  28498-3 0  9992
2 42793  97.1908 291.9600 0009607  38.4026 321.7896 15.28461270290062
CORVUS BC2              
1 42846U 17042X   22253.53356627  .00001358  00000+0  13533-3 0  9993
2 42846  97.4134 105.9974 0010956  74.2804 285.9624 14.93063821280974
CORVUS BC1              
1 42847U 17042Y   22253.54129677  .00001362  00000+0  13542-3 0  9993
2 42847  97.4135 106.3251 0010628  73.3197 286.9189 14.93163757280987
MIRATA                  
1 43015U 17073C   22253.21830894  .00005236  00000+0  37952-3 0  9994
2 43015  97.6625 145.3879 0233966 262.2229  95.2368 14.84977329259846
MAKERSAT 0              
1 43016U 17073D   22253.21820812  .00003574  00000+0  26740-3 0  9990
2 43016  97.6637 144.7580 0241704 267.3046  90.0483 14.83008333259754
ASGARDIA 1              
1 43049U 17071N   22253.45941968  .02842630  11972-4  10765-2 0  9996
2 43049  51.6160 322.2841 0009186 345.6966  14.3792 16.23398753269107
CORVUS BC3              
1 43118U 18004H   22253.44560099  .00007192  00000+0  26286-3 0  9996
2 43118  97.3571 325.0860 0010334  67.2966 292.9365 15.28339871259191
MICROMAS-2A             
1 43131U 18004W   22253.52275589  .00025674  00000+0  65159-3 0  9994
2 43131  97.3710 333.1825 0006204  54.4949 305.6875 15.39635803259657
SPACEBEE-4              
1 43139U 18004AE  22253.30579336  .00061305  00000+0  10101-2 0  9992
2 43139  97.3802 339.2772 0003278  52.0537 308.1011 15.52113169259976
SPACEBEE-3              
1 43140U 18004AF  22253.24617345  .00333138  00000+0  19665-2 0  9990
2 43140  97.3806 345.0044 0003920 263.6136  96.4684 15.77217117260316
SPACEBEE-2              
1 43141U 18004AG  22249.99215889  .13616117  25214-5  83879-3 0  9999
2 43141  97.3560 344.6117 0016906 267.0300  92.9065 16.40015958259984
CICERO 7                
1 43143U 18004AJ  22253.22757310  .00015429  00000+0  44589-3 0  9992
2 43143  97.3694 331.9803 0006500  66.6083 293.5843 15.35712492259573
GOMX-4B                 
1 43196U 18015E   22253.38226862  .00005996  00000+0  22205-3 0  9991
2 43196  97.5450  33.6593 0018175 116.1111 244.2000 15.27891595256128
GOMX-4A                 
1 43197U 18015F   22253.45569056  .00008435  00000+0  29380-3 0  9997
2 43197  97.5441  34.7676 0017718 114.9438 316.6085 15.29774372256215
AEROCUBE 12A            
1 43556U 18046C   22252.95808761  .00020466  00000+0  47937-3 0  9999
2 43556  51.6362 131.0655 0005633 349.4391  10.6475 15.42060346232347
AEROCUBE 12B            
1 43557U 18046D   22253.08247421  .00016927  00000+0  43367-3 0  9995
2 43557  51.6379 136.3144 0005970 345.0546  15.0261 15.39471169232230
SURFSAT                 
1 43614U 18070B   22253.54633238  .00048487  00000+0  56705-3 0  9998
2 43614  93.0202 135.0074 0011657  54.1876 306.0472 15.61337911224318
CP7 (DAVE)              
1 43615U 18070C   22253.19158320  .00041192  00000+0  52055-3 0  9994
2 43615  93.0195 134.6123 0012550  56.9784 303.2685 15.59313333224214
ELFIN-B                 
1 43616U 18070D   22253.23669675  .00339581  43161-4  10590-2 0  9999
2 43616  93.0055 136.7742 0005727  73.5386 286.6525 15.91504871224718
ELFIN-A                 
1 43617U 18070E   22253.15986332  .00869433  39419-3  12551-2 0  9996
2 43617  93.0091 138.4398 0003734 120.1937 239.9723 16.05458443224790
CUBEBEL-1 (BSUSAT-1)    
1 43666U 18083E   22253.57456787  .00009929  00000+0  40597-3 0  9994
2 43666  97.4170 281.3457 0013901  40.0694 119.5347 15.24464774214441
CICERO 10               
1 43690U 18088A   22253.51915106  .00008368  00000+0  32467-3 0  9998
2 43690  85.0314 259.8205 0013095 180.9790 179.1430 15.25860406212724
IRVINE01                
1 43693U 18088D   22253.50022273  .00043462  00000+0  97609-3 0  9997
2 43693  85.0231 252.9419 0014077 137.0615 223.1740 15.43077120213319
PROXIMA I               
1 43694U 18088E   22253.45279150  .00007521  00000+0  27680-3 0  9998
2 43694  85.0252 256.3403 0018031 151.2180 209.0064 15.27514740212949
PROXIMA II              
1 43696U 18088G   22253.45429365  .00007328  00000+0  26989-3 0  9991
2 43696  85.0254 256.3611 0018074 151.2130 209.0116 15.27486731212931
FACSAT-1                
1 43721U 18096C   22253.44269659  .00023515  00000+0  60768-3 0  9995
2 43721  97.3467 333.3175 0014357 108.5742  24.0298 15.39010787211030
CENTAURI-2              
1 43722U 18096D   22253.47112497  .00032843  00000+0  73501-3 0  9999
2 43722  97.3521 335.8571 0012599 104.3387 255.9260 15.43320891211178
INNOSAT-2               
1 43738U 18096V   22253.53398799  .00084570  00000+0  11225-2 0  9992
2 43738  97.3618 344.6188 0010504  94.5219  31.9115 15.57889561211712
SIRION PATHFINDER-2     
1 43759U 18099B   22253.49242308  .00000941  00000+0  87498-4 0  9994
2 43759  97.6137 318.0202 0013445 342.0851  17.9895 14.96588497205769
